[{"OBJECT_NAME":"STARLINK-34260","OBJECT_ID":"2025-124T","EPOCH":"2026-03-09T12:45:35.584704","MEAN_MOTION":15.27585172,"ECCENTRICITY":0.00020538,"INCLINATION":43.0023,"RA_OF_ASC_NODE":122.8303,"ARG_OF_PERICENTER":261.3098,"MEAN_ANOMALY":98.7521,"EPHEMERIS_TYPE":0,"CLASSIFICATION_TYPE":"U","NORAD_CAT_ID":64334,"ELEMENT_SET_NO":999,"REV_AT_EPOCH":4175,"BSTAR":0.00096485008,"MEAN_MOTION_DOT":0.00026388,"MEAN_MOTION_DDOT":0},{"OBJECT_NAME":"ELECTRON KICK STAGE R\/B","OBJECT_ID":"2019-069C","EPOCH":"2026-03-09T21:46:17.810112","MEAN_MOTION":14.3018174,"ECCENTRICITY":0.04358653,"INCLINATION":87.9001,"RA_OF_ASC_NODE":206.3408,"ARG_OF_PERICENTER":37.1425,"MEAN_ANOMALY":325.9095,"EPHEMERIS_TYPE":0,"CLASSIFICATION_TYPE":"U","NORAD_CAT_ID":44636,"ELEMENT_SET_NO":999,"REV_AT_EPOCH":33098,"BSTAR":0.0004662077,"MEAN_MOTION_DOT":3.501e-5,"MEAN_MOTION_DDOT":0}]
